STARLINK-37244          
1 68529U 26068X   26100.19937532  .00034374  00000+0  16045-3 0  9999
2 68529  53.1605 351.2422 0003719  29.1313 330.9918 15.82988468  1654
STARLINK-36285          
1 68530U 26068Y   26100.26110408 -.00643822  00000+0 -32270-2 0  9997
2 68530  53.1606 350.9158 0006485 214.4038 145.6566 15.82594179  1668
STARLINK-36294          
1 68531U 26068Z   26100.19724327  .00428086  00000+0  18437-2 0  9991
2 68531  53.1604 351.2277 0006375  44.3989 315.7545 15.83316240  1654
STARLINK-36249          
1 68532U 26068AA  26100.19582904 -.00666227  00000+0 -32463-2 0  9993
2 68532  53.1596 351.2183 0000385 156.8239 203.2802 15.83309999  1653
STARLINK-36252          
1 68533U 26068AB  26100.25968043 -.00613492  00000+0 -30182-2 0  9995
2 68533  53.1605 350.9062 0004920 208.9476 151.1275 15.82936684  1660
STARLINK-36299          
1 68534U 26068AC  26100.25824973 -.00656395  00000+0 -31912-2 0  9990
2 68534  53.1601 350.8966 0005868 214.4360 145.6284 15.83276086  1667
STARLINK-37234          
1 68535U 26068AD  26100.25682060 -.00560663  00000+0 -26734-2 0  9998
2 68535  53.1604 350.8867 0002122 216.1469 143.9412 15.83496537  1669
STARLINK-37173          
1 68536U 26068AE  26100.19439561  .00387951  00000+0  16356-2 0  9992
2 68536  53.1601 351.2082 0006227  42.9969 317.1541 15.83869331  1654
TACHELES                
1 68539U 26069B   26092.55069444 -.00190496  11727-5 -71298-2 0  9993
2 68539  28.3448 359.8421 8430033  77.7942 194.3023  1.02407762    02
SWC-1                   
1 68540U 26069C   26094.03836202 -.00012113  68892-4  00000+0 0  9996
2 68540  28.3174 359.0866 8436800  78.4879  25.8197  1.02608558    39
K-RADCUBE               
1 68541U 26069D   26092.67815972 -.00078411  19505-5 -17218-4 0  9992
2 68541  28.3341 359.8703 8450105  77.6642 243.1767  1.02517944    33
STARLINK-37326          
1 68542U 26070A   26100.25001157 -.00957093  30092-3 -20173-2 0  9997
2 68542  53.1589 226.7071 0000816  75.8112  92.8405 15.98170990  2450
STARLINK-36308          
1 68543U 26070B   26100.25001157 -.00959770  30275-3 -20121-2 0  9998
2 68543  53.1588 226.7028 0000782  74.4189  96.0894 15.98268159  2401
STARLINK-37263          
1 68544U 26070C   26100.25001157 -.00972898  31092-3 -20176-2 0  9993
2 68544  53.1586 226.6958 0000787  69.4176 104.7117 15.98464436  2452
STARLINK-37289          
1 68545U 26070D   26100.25001157 -.00954473  29999-3 -19920-2 0  9991
2 68545  53.1584 226.7003 0000742  71.5761 100.3359 15.98347603  2454
