[{"OBJECT_NAME":"STARLINK-37244","OBJECT_ID":"2026-068X","EPOCH":"2026-04-10T04:47:06.027648","MEAN_MOTION":15.82988468,"ECCENTRICITY":0.00037192,"INCLINATION":53.1605,"RA_OF_ASC_NODE":351.2422,"ARG_OF_PERICENTER":29.1313,"MEAN_ANOMALY":330.9918,"EPHEMERIS_TYPE":0,"CLASSIFICATION_TYPE":"U","NORAD_CAT_ID":68529,"ELEMENT_SET_NO":999,"REV_AT_EPOCH":165,"BSTAR":0.0001604527,"MEAN_MOTION_DOT":0.00034374,"MEAN_MOTION_DDOT":0},{"OBJECT_NAME":"STARLINK-36285","OBJECT_ID":"2026-068Y","EPOCH":"2026-04-10T06:15:59.392512","MEAN_MOTION":15.82594179,"ECCENTRICITY":0.00064853,"INCLINATION":53.1606,"RA_OF_ASC_NODE":350.9158,"ARG_OF_PERICENTER":214.4038,"MEAN_ANOMALY":145.6566,"EPHEMERIS_TYPE":0,"CLASSIFICATION_TYPE":"U","NORAD_CAT_ID":68530,"ELEMENT_SET_NO":999,"REV_AT_EPOCH":166,"BSTAR":-0.0032269577,"MEAN_MOTION_DOT":-0.00643822,"MEAN_MOTION_DDOT":0},{"OBJECT_NAME":"STARLINK-36294","OBJECT_ID":"2026-068Z","EPOCH":"2026-04-10T04:44:01.818528","MEAN_MOTION":15.8331624,"ECCENTRICITY":0.00063756,"INCLINATION":53.1604,"RA_OF_ASC_NODE":351.2277,"ARG_OF_PERICENTER":44.3989,"MEAN_ANOMALY":315.7545,"EPHEMERIS_TYPE":0,"CLASSIFICATION_TYPE":"U","NORAD_CAT_ID":68531,"ELEMENT_SET_NO":999,"REV_AT_EPOCH":165,"BSTAR":0.0018436741,"MEAN_MOTION_DOT":0.00428086,"MEAN_MOTION_DDOT":0},{"OBJECT_NAME":"STARLINK-36249","OBJECT_ID":"2026-068AA","EPOCH":"2026-04-10T04:41:59.629056","MEAN_MOTION":15.83309999,"ECCENTRICITY":3.856e-5,"INCLINATION":53.1596,"RA_OF_ASC_NODE":351.2183,"ARG_OF_PERICENTER":156.8239,"MEAN_ANOMALY":203.2802,"EPHEMERIS_TYPE":0,"CLASSIFICATION_TYPE":"U","NORAD_CAT_ID":68532,"ELEMENT_SET_NO":999,"REV_AT_EPOCH":165,"BSTAR":-0.0032462597,"MEAN_MOTION_DOT":-0.00666227,"MEAN_MOTION_DDOT":0},{"OBJECT_NAME":"STARLINK-36252","OBJECT_ID":"2026-068AB","EPOCH":"2026-04-10T06:13:56.389152","MEAN_MOTION":15.82936684,"ECCENTRICITY":0.00049205,"INCLINATION":53.1605,"RA_OF_ASC_NODE":350.9062,"ARG_OF_PERICENTER":208.9476,"MEAN_ANOMALY":151.1275,"EPHEMERIS_TYPE":0,"CLASSIFICATION_TYPE":"U","NORAD_CAT_ID":68533,"ELEMENT_SET_NO":999,"REV_AT_EPOCH":166,"BSTAR":-0.003018239,"MEAN_MOTION_DOT":-0.00613492,"MEAN_MOTION_DDOT":0},{"OBJECT_NAME":"STARLINK-36299","OBJECT_ID":"2026-068AC","EPOCH":"2026-04-10T06:11:52.776672","MEAN_MOTION":15.83276086,"ECCENTRICITY":0.00058687,"INCLINATION":53.1601,"RA_OF_ASC_NODE":350.8966,"ARG_OF_PERICENTER":214.436,"MEAN_ANOMALY":145.6284,"EPHEMERIS_TYPE":0,"CLASSIFICATION_TYPE":"U","NORAD_CAT_ID":68534,"ELEMENT_SET_NO":999,"REV_AT_EPOCH":166,"BSTAR":-0.0031911822,"MEAN_MOTION_DOT":-0.00656395,"MEAN_MOTION_DDOT":0},{"OBJECT_NAME":"STARLINK-37234","OBJECT_ID":"2026-068AD","EPOCH":"2026-04-10T06:09:49.299840","MEAN_MOTION":15.83496537,"ECCENTRICITY":0.00021225,"INCLINATION":53.1604,"RA_OF_ASC_NODE":350.8867,"ARG_OF_PERICENTER":216.1469,"MEAN_ANOMALY":143.9412,"EPHEMERIS_TYPE":0,"CLASSIFICATION_TYPE":"U","NORAD_CAT_ID":68535,"ELEMENT_SET_NO":999,"REV_AT_EPOCH":166,"BSTAR":-0.002673409,"MEAN_MOTION_DOT":-0.00560663,"MEAN_MOTION_DDOT":0},{"OBJECT_NAME":"STARLINK-37173","OBJECT_ID":"2026-068AE","EPOCH":"2026-04-10T04:39:55.780704","MEAN_MOTION":15.83869331,"ECCENTRICITY":0.00062271,"INCLINATION":53.1601,"RA_OF_ASC_NODE":351.2082,"ARG_OF_PERICENTER":42.9969,"MEAN_ANOMALY":317.1541,"EPHEMERIS_TYPE":0,"CLASSIFICATION_TYPE":"U","NORAD_CAT_ID":68536,"ELEMENT_SET_NO":999,"REV_AT_EPOCH":165,"BSTAR":0.0016356046,"MEAN_MOTION_DOT":0.00387951,"MEAN_MOTION_DDOT":0},{"OBJECT_NAME":"TACHELES","OBJECT_ID":"2026-069B","EPOCH":"2026-04-02T13:12:59.999616","MEAN_MOTION":1.02407762,"ECCENTRICITY":0.8430033,"INCLINATION":28.3448,"RA_OF_ASC_NODE":359.8421,"ARG_OF_PERICENTER":77.7942,"MEAN_ANOMALY":194.3023,"EPHEMERIS_TYPE":0,"CLASSIFICATION_TYPE":"U","NORAD_CAT_ID":68539,"ELEMENT_SET_NO":999,"REV_AT_EPOCH":0,"BSTAR":-0.0071298,"MEAN_MOTION_DOT":-0.00190496,"MEAN_MOTION_DDOT":1.1727e-6},{"OBJECT_NAME":"SWC-1","OBJECT_ID":"2026-069C","EPOCH":"2026-04-04T00:55:14.478528","MEAN_MOTION":1.02608558,"ECCENTRICITY":0.84368008,"INCLINATION":28.3174,"RA_OF_ASC_NODE":359.0866,"ARG_OF_PERICENTER":78.4879,"MEAN_ANOMALY":25.8197,"EPHEMERIS_TYPE":0,"CLASSIFICATION_TYPE":"U","NORAD_CAT_ID":68540,"ELEMENT_SET_NO":999,"REV_AT_EPOCH":3,"BSTAR":0,"MEAN_MOTION_DOT":-0.00012113,"MEAN_MOTION_DDOT":6.8891712e-5},{"OBJECT_NAME":"K-RADCUBE","OBJECT_ID":"2026-069D","EPOCH":"2026-04-02T16:16:32.999808","MEAN_MOTION":1.02517944,"ECCENTRICITY":0.8450105,"INCLINATION":28.3341,"RA_OF_ASC_NODE":359.8703,"ARG_OF_PERICENTER":77.6642,"MEAN_ANOMALY":243.1767,"EPHEMERIS_TYPE":0,"CLASSIFICATION_TYPE":"U","NORAD_CAT_ID":68541,"ELEMENT_SET_NO":999,"REV_AT_EPOCH":3,"BSTAR":-1.7218e-5,"MEAN_MOTION_DOT":-0.00078411,"MEAN_MOTION_DDOT":1.9505e-6},{"OBJECT_NAME":"STARLINK-37326","OBJECT_ID":"2026-070A","EPOCH":"2026-04-10T06:00:00.999648","MEAN_MOTION":15.9817099,"ECCENTRICITY":8.166e-5,"INCLINATION":53.1589,"RA_OF_ASC_NODE":226.7071,"ARG_OF_PERICENTER":75.8112,"MEAN_ANOMALY":92.8405,"EPHEMERIS_TYPE":0,"CLASSIFICATION_TYPE":"U","NORAD_CAT_ID":68542,"ELEMENT_SET_NO":999,"REV_AT_EPOCH":245,"BSTAR":-0.0020173342,"MEAN_MOTION_DOT":-0.00957093,"MEAN_MOTION_DDOT":0.00030091711},{"OBJECT_NAME":"STARLINK-36308","OBJECT_ID":"2026-070B","EPOCH":"2026-04-10T06:00:00.999648","MEAN_MOTION":15.98268159,"ECCENTRICITY":7.823e-5,"INCLINATION":53.1588,"RA_OF_ASC_NODE":226.7028,"ARG_OF_PERICENTER":74.4189,"MEAN_ANOMALY":96.0894,"EPHEMERIS_TYPE":0,"CLASSIFICATION_TYPE":"U","NORAD_CAT_ID":68543,"ELEMENT_SET_NO":999,"REV_AT_EPOCH":240,"BSTAR":-0.0020120714,"MEAN_MOTION_DOT":-0.0095977,"MEAN_MOTION_DDOT":0.00030274973},{"OBJECT_NAME":"STARLINK-37263","OBJECT_ID":"2026-070C","EPOCH":"2026-04-10T06:00:00.999648","MEAN_MOTION":15.98464436,"ECCENTRICITY":7.876e-5,"INCLINATION":53.1586,"RA_OF_ASC_NODE":226.6958,"ARG_OF_PERICENTER":69.4176,"MEAN_ANOMALY":104.7117,"EPHEMERIS_TYPE":0,"CLASSIFICATION_TYPE":"U","NORAD_CAT_ID":68544,"ELEMENT_SET_NO":999,"REV_AT_EPOCH":245,"BSTAR":-0.0020175571,"MEAN_MOTION_DOT":-0.00972898,"MEAN_MOTION_DDOT":0.00031091839},{"OBJECT_NAME":"STARLINK-37289","OBJECT_ID":"2026-070D","EPOCH":"2026-04-10T06:00:00.999648","MEAN_MOTION":15.98347603,"ECCENTRICITY":7.426e-5,"INCLINATION":53.1584,"RA_OF_ASC_NODE":226.7003,"ARG_OF_PERICENTER":71.5761,"MEAN_ANOMALY":100.3359,"EPHEMERIS_TYPE":0,"CLASSIFICATION_TYPE":"U","NORAD_CAT_ID":68545,"ELEMENT_SET_NO":999,"REV_AT_EPOCH":245,"BSTAR":-0.0019919726,"MEAN_MOTION_DOT":-0.00954473,"MEAN_MOTION_DDOT":0.00029998929}]
